1 08820U 76039A   03326.73974128 -.00000004  00000-0  10000-3 0  9908
2 08820 109.8279 235.8764 0044339 267.4682  92.0876  6.38664581387185
